{
  "type": "FeatureCollection",
  "name": "Anchorage TAC.tif",
  "crs": {
    "type": "name",
    "properties": {
      "name": "urn:ogc:def:crs:EPSG::3857"
    }
  },
  "features": [
    {
      "type": "Feature",
      "properties": {
        "location": "Anchorage TAC.tif"
      },
      "geometry": {
        "type": "Polygon",
        "coordinates": [
          [
            [
              -16904271.58718629,
              8780586.875947414
            ],
            [
              -16508600.57744494,
              8778026.206234096
            ],
            [
              -16516054.955630368,
              8523506.97383511
            ],
            [
              -16898961.614199784,
              8525907.819711247
            ],
            [
              -16904271.58718629,
              8780586.875947414
            ]
          ]
        ]
      }
    }
  ]
}
