{
  "type": "FeatureCollection",
  "name": "Baltimore -Washington TAC.tif",
  "crs": {
    "type": "name",
    "properties": {
      "name": "urn:ogc:def:crs:EPSG::3857"
    }
  },
  "features": [
    {
      "type": "Feature",
      "properties": {
        "location": "Baltimore -Washington TAC.tif"
      },
      "geometry": {
        "type": "Polygon",
        "coordinates": [
          [
            [
              -8721074.633602677,
              4836366.420742632
            ],
            [
              -8432983.253116941,
              4836355.536300375
            ],
            [
              -8436240.56052457,
              4605247.313954968
            ],
            [
              -8717830.565060508,
              4605278.135952506
            ],
            [
              -8721074.633602677,
              4836366.420742632
            ]
          ]
        ]
      }
    }
  ]
}
