{
  "type": "FeatureCollection",
  "name": "Boston TAC.tif",
  "crs": {
    "type": "name",
    "properties": {
      "name": "urn:ogc:def:crs:EPSG::3857"
    }
  },
  "features": [
    {
      "type": "Feature",
      "properties": {
        "location": "Boston TAC.tif"
      },
      "geometry": {
        "type": "Polygon",
        "coordinates": [
          [
            [
              -8001148.067830645,
              5292619.989986605
            ],
            [
              -7743320.7468244145,
              5291537.986696471
            ],
            [
              -7747371.502679548,
              5048851.35357695
            ],
            [
              -7999108.4214117555,
              5049861.604827319
            ],
            [
              -8001148.067830645,
              5292619.989986605
            ]
          ]
        ]
      }
    }
  ]
}
