{
  "type": "FeatureCollection",
  "name": "Cincinnati TAC.tif",
  "crs": {
    "type": "name",
    "properties": {
      "name": "urn:ogc:def:crs:EPSG::3857"
    }
  },
  "features": [
    {
      "type": "Feature",
      "properties": {
        "location": "Cincinnati TAC.tif"
      },
      "geometry": {
        "type": "Polygon",
        "coordinates": [
          [
            [
              -9522436.312130822,
              4876434.961496275
            ],
            [
              -9316503.876664296,
              4876447.728551921
            ],
            [
              -9320040.094508266,
              4646212.210875365
            ],
            [
              -9521266.752811141,
              4647123.013516957
            ],
            [
              -9522436.312130822,
              4876434.961496275
            ]
          ]
        ]
      }
    }
  ]
}
