{
  "type": "FeatureCollection",
  "name": "Colorado Springs TAC.tif",
  "crs": {
    "type": "name",
    "properties": {
      "name": "urn:ogc:def:crs:EPSG::3857"
    }
  },
  "features": [
    {
      "type": "Feature",
      "properties": {
        "location": "Colorado Springs TAC.tif"
      },
      "geometry": {
        "type": "Polygon",
        "coordinates": [
          [
            [
              -11746141.264839198,
              4759991.564877951
            ],
            [
              -11519684.468299784,
              4759964.5832750155
            ],
            [
              -11519754.93985526,
              4551187.279379315
            ],
            [
              -11746042.535973258,
              4551187.010931643
            ],
            [
              -11746141.264839198,
              4759991.564877951
            ]
          ]
        ]
      }
    }
  ]
}
