{
  "type": "FeatureCollection",
  "name": "Fairbanks TAC.tif",
  "crs": {
    "type": "name",
    "properties": {
      "name": "urn:ogc:def:crs:EPSG::3857"
    }
  },
  "features": [
    {
      "type": "Feature",
      "properties": {
        "location": "Fairbanks TAC.tif"
      },
      "geometry": {
        "type": "Polygon",
        "coordinates": [
          [
            [
              -16627741.904030519,
              9674822.208413254
            ],
            [
              -16569446.730572676,
              9676290.41362585
            ],
            [
              -16568842.060926871,
              9677163.825336464
            ],
            [
              -16567649.518014308,
              9677382.178264115
            ],
            [
              -16566843.291819897,
              9677046.25068311
            ],
            [
              -16566540.956996996,
              9676542.359311607
            ],
            [
              -16566440.178722693,
              9676256.820867755
            ],
            [
              -16523428.85106994,
              9677025.255209299
            ],
            [
              -16420412.459260417,
              9677495.553822698
            ],
            [
              -16311319.977329487,
              9676559.15569066
            ],
            [
              -16220151.331392469,
              9674276.947687192
            ],
            [
              -16223983.005363297,
              9542876.774830243
            ],
            [
              -16228505.928587196,
              9391735.392544277
            ],
            [
              -16427026.033511426,
              9394631.933333347
            ],
            [
              -16620106.74462944,
              9392311.978945445
            ],
            [
              -16623577.26115665,
              9520084.088459158
            ],
            [
              -16626936.536966689,
              9644990.36126583
            ],
            [
              -16626919.740587642,
              9646980.73218328
            ],
            [
              -16628129.079879252,
              9647451.030796686
            ],
            [
              -16628061.894363051,
              9649533.78179891
            ],
            [
              -16627054.11162004,
              9650608.75005812
            ],
            [
              -16627741.904030519,
              9674822.208413254
            ]
          ]
        ]
      }
    }
  ]
}
