{
  "type": "FeatureCollection",
  "name": "Las Vagas TAC",
  "crs": {
    "type": "name",
    "properties": {
      "name": "urn:ogc:def:crs:OGC:1.3:CRS84"
    }
  },
  "features": [
    {
      "type": "Feature",
      "properties": {
        "id": null
      },
      "geometry": {
        "type": "Polygon",
        "coordinates": [
          [
            [
              -115.62093624164123,
              36.73385366176625
            ],
            [
              -113.8635752945167,
              36.728448480868565
            ],
            [
              -113.88061700996887,
              35.69581490218262
            ],
            [
              -115.61338671912404,
              35.70104631105981
            ],
            [
              -115.62093624164123,
              36.73385366176625
            ]
          ]
        ]
      }
    }
  ]
}
