{
  "type": "FeatureCollection",
  "name": "Los Angeles TAC.tif",
  "crs": {
    "type": "name",
    "properties": {
      "name": "urn:ogc:def:crs:EPSG::3857"
    }
  },
  "features": [
    {
      "type": "Feature",
      "properties": {
        "location": "Los Angeles TAC.tif"
      },
      "geometry": {
        "type": "Polygon",
        "coordinates": [
          [
            [
              -13263856.688589629,
              4098461.2252042172
            ],
            [
              -13001183.403827567,
              4098378.274403833
            ],
            [
              -13003135.095173907,
              3949853.082330936
            ],
            [
              -13261946.55294806,
              3949934.2891555843
            ],
            [
              -13263856.688589629,
              4098461.2252042172
            ]
          ]
        ]
      }
    }
  ]
}
