{
  "type": "FeatureCollection",
  "name": "Memphis TAC.tif",
  "crs": {
    "type": "name",
    "properties": {
      "name": "urn:ogc:def:crs:EPSG::3857"
    }
  },
  "features": [
    {
      "type": "Feature",
      "properties": {
        "location": "Memphis TAC.tif"
      },
      "geometry": {
        "type": "Polygon",
        "coordinates": [
          [
            [
              -10115117.252381774,
              4260536.629023273
            ],
            [
              -9920457.687249074,
              4260419.966588612
            ],
            [
              -9922225.818258371,
              4082743.8737667613
            ],
            [
              -10113511.24758694,
              4082856.9904926587
            ],
            [
              -10115117.252381774,
              4260536.629023273
            ]
          ]
        ]
      }
    }
  ]
}
