{
  "type": "FeatureCollection",
  "name": "Phoenix TAC.tif",
  "crs": {
    "type": "name",
    "properties": {
      "name": "urn:ogc:def:crs:EPSG::3857"
    }
  },
  "features": [
    {
      "type": "Feature",
      "properties": {
        "location": "Phoenix TAC.tif"
      },
      "geometry": {
        "type": "Polygon",
        "coordinates": [
          [
            [
              -12564658.574135222,
              4040061.621532749
            ],
            [
              -12375126.362410583,
              4040178.418842283
            ],
            [
              -12376696.10032381,
              3866522.8642477775
            ],
            [
              -12563068.377231425,
              3866484.003203344
            ],
            [
              -12564658.574135222,
              4040061.621532749
            ]
          ]
        ]
      }
    }
  ]
}
