{
  "type": "FeatureCollection",
  "name": "Salt Lake City TAC.tif",
  "crs": {
    "type": "name",
    "properties": {
      "name": "urn:ogc:def:crs:EPSG::3857"
    }
  },
  "features": [
    {
      "type": "Feature",
      "properties": {
        "location": "Salt Lake City TAC.tif"
      },
      "geometry": {
        "type": "Polygon",
        "coordinates": [
          [
            [
              -12568958.407998422,
              5074174.073606067
            ],
            [
              -12359062.85875196,
              5073757.933353282
            ],
            [
              -12361328.464803161,
              4883480.825205037
            ],
            [
              -12567327.66751459,
              4883854.909582072
            ],
            [
              -12568958.407998422,
              5074174.073606067
            ]
          ]
        ]
      }
    }
  ]
}
