{
  "type": "FeatureCollection",
  "name": "Seattle TAC.tif",
  "crs": {
    "type": "name",
    "properties": {
      "name": "urn:ogc:def:crs:EPSG::3857"
    }
  },
  "features": [
    {
      "type": "Feature",
      "properties": {
        "location": "Seattle TAC.tif"
      },
      "geometry": {
        "type": "Polygon",
        "coordinates": [
          [
            [
              -13714336.268091658,
              6117233.434875444
            ],
            [
              -13528538.017905893,
              6116927.335567936
            ],
            [
              -13530732.912684439,
              5901301.7817513365
            ],
            [
              -13712622.548519641,
              5901350.599209804
            ],
            [
              -13714336.268091658,
              6117233.434875444
            ]
          ]
        ]
      }
    }
  ]
}
