{
  "type": "FeatureCollection",
  "name": "St Louis TAC.tif",
  "crs": {
    "type": "name",
    "properties": {
      "name": "urn:ogc:def:crs:EPSG::3857"
    }
  },
  "features": [
    {
      "type": "Feature",
      "properties": {
        "location": "St Louis TAC.tif"
      },
      "geometry": {
        "type": "Polygon",
        "coordinates": [
          [
            [
              -10138744.316429378,
              4753075.232321639
            ],
            [
              -9976649.657001112,
              4753214.967572352
            ],
            [
              -9977794.659253888,
              4605317.673022979
            ],
            [
              -10137708.693191115,
              4605206.196370945
            ],
            [
              -10138744.316429378,
              4753075.232321639
            ]
          ]
        ]
      }
    }
  ]
}
