{
  "type": "FeatureCollection",
  "name": "Chicago FLY.tif",
  "crs": {
    "type": "name",
    "properties": {
      "name": "urn:ogc:def:crs:EPSG::3857"
    }
  },
  "features": [
    {
      "type": "Feature",
      "properties": {
        "id": null
      },
      "geometry": {
        "type": "Polygon",
        "coordinates": [
          [
            [
              -9882616.671650939,
              5234417.943995698
            ],
            [
              -9712786.61906237,
              5234443.196044314
            ],
            [
              -9713156.662686579,
              5185722.571552619
            ],
            [
              -9712336.809199454,
              5185677.823497119
            ],
            [
              -9710598.5901836,
              5185568.963945945
            ],
            [
              -9707299.942670563,
              5185317.005898664
            ],
            [
              -9707320.20415283,
              5184591.073851515
            ],
            [
              -9707307.426060058,
              5184063.865184233
            ],
            [
              -9703452.381843388,
              5183870.336980203
            ],
            [
              -9702410.842331741,
              5183679.199643589
            ],
            [
              -9702090.118522292,
              5183388.250683038
            ],
            [
              -9702087.158449069,
              5183332.376844007
            ],
            [
              -9703499.662534183,
              5183071.464882294
            ],
            [
              -9713166.254887352,
              5183776.949457683
            ],
            [
              -9713207.708490605,
              5179127.259044274
            ],
            [
              -9712550.215408154,
              5176657.20935738
            ],
            [
              -9712013.061331369,
              5174378.770981624
            ],
            [
              -9711761.771990635,
              5172842.375214966
            ],
            [
              -9711444.468667028,
              5170901.251572078
            ],
            [
              -9711298.996018382,
              5170021.565367689
            ],
            [
              -9711038.58934626,
              5167942.035776108
            ],
            [
              -9710897.405655632,
              5166560.83355261
            ],
            [
              -9710848.065333745,
              5165821.699772874
            ],
            [
              -9710784.67260599,
              5165103.404926744
            ],
            [
              -9710740.707271036,
              5164552.553035786
            ],
            [
              -9710717.863347791,
              5163967.071942973
            ],
            [
              -9710673.847932301,
              5163423.247556808
            ],
            [
              -9710541.242910812,
              5161861.602158329
            ],
            [
              -9710526.166688139,
              5160356.911981837
            ],
            [
              -9710505.34100765,
              5159534.891778313
            ],
            [
              -9704455.481982497,
              5159460.792005674
            ],
            [
              -9704491.59221972,
              5158534.8863828285
            ],
            [
              -9703202.24855211,
              5158411.661200925
            ],
            [
              -9703236.8133884,
              5157666.883068571
            ],
            [
              -9710596.617807662,
              5157759.874739089
            ],
            [
              -9710673.417791653,
              5154404.7724912735
            ],
            [
              -9710823.243548762,
              5152255.317576691
            ],
            [
              -9711066.3819486,
              5149717.455202242
            ],
            [
              -9711392.381523086,
              5147201.782336411
            ],
            [
              -9711900.655534519,
              5144410.071385216
            ],
            [
              -9712449.862135949,
              5141661.152211748
            ],
            [
              -9713036.449216288,
              5139385.8942043865
            ],
            [
              -9713500.052686933,
              5137728.6030606385
            ],
            [
              -9713496.35242662,
              5137332.450096463
            ],
            [
              -9705120.296247153,
              5137176.911442646
            ],
            [
              -9704999.114184916,
              5136793.610597484
            ],
            [
              -9705005.660898246,
              5136064.043481201
            ],
            [
              -9704175.385574501,
              5136014.8119237935
            ],
            [
              -9702798.105389932,
              5135602.619616314
            ],
            [
              -9702798.616209785,
              5135547.038298574
            ],
            [
              -9704111.202197565,
              5135267.284751967
            ],
            [
              -9713558.426312102,
              5135552.333681286
            ],
            [
              -9714013.919874176,
              5079906.80817396
            ],
            [
              -9881283.1062732,
              5079883.949532343
            ],
            [
              -9882616.671650939,
              5234417.943995698
            ]
          ]
        ]
      }
    }
  ]
}
