{
  "type": "FeatureCollection",
  "name": "Miami FLY.tif",
  "crs": {
    "type": "name",
    "properties": {
      "name": "PROJCS[\"WGS 84 / Pseudo-Mercator\",GEOGCS[\"WGS 84\",DATUM[\"WGS_1984\",SPHEROID[\"WGS 84\",6378137,298.257223563,AUTHORITY[\"EPSG\",\"7030\"]],AUTHORITY[\"EPSG\",\"6326\"]],PRIMEM[\"Greenwich\",0,AUTHORITY[\"EPSG\",\"8901\"]],UNIT[\"degree\",0.0174532925199433,AUTHORITY[\"EPSG\",\"9122\"]],AUTHORITY[\"EPSG\",\"4326\"]],PROJECTION[\"Mercator_1SP\"],PARAMETER[\"central_meridian\",0],PARAMETER[\"scale_factor\",1],PARAMETER[\"false_easting\",0],PARAMETER[\"false_northing\",0],UNIT[\"metre\",1,AUTHORITY[\"EPSG\",\"9001\"]],AXIS[\"Easting\",EAST],AXIS[\"Northing\",NORTH],EXTENSION[\"PROJ4\",\"+proj=merc +a=6378137 +b=6378137 +lat_ts=0 +lon_0=0 +x_0=0 +y_0=0 +k=1 +units=m +nadgrids=@null +wktext +no_defs\"],AUTHORITY[\"EPSG\",\"3857\"]]"
    }
  },
  "features": [
    {
      "type": "Feature",
      "properties": {
        "location": "Miami FLY.tif"
      },
      "geometry": {
        "type": "Polygon",
        "coordinates": [
          [
            [
              -9037198.151251115,
              3093760.194146592
            ],
            [
              -8986174.92664852,
              3094208.9585049907
            ],
            [
              -8934637.119806796,
              3094424.8545207684
            ],
            [
              -8882287.046803573,
              3094371.331553071
            ],
            [
              -8829867.748089287,
              3094022.062449233
            ],
            [
              -8831273.825379176,
              2934230.4268693035
            ],
            [
              -8904218.571564713,
              2934610.294327435
            ],
            [
              -8904208.274115667,
              2925635.805454151
            ],
            [
              -8925398.842200967,
              2925678.280013965
            ],
            [
              -8925386.636881804,
              2890536.5914482055
            ],
            [
              -9034841.937908106,
              2889855.260918466
            ],
            [
              -9037198.151251115,
              3093760.194146592
            ]
          ]
        ]
      }
    }
  ]
}
