{
  "type": "FeatureCollection",
  "name": "step_5w",
  "crs": {
    "type": "name",
    "properties": {
      "name": "PROJCS[\"AK_IFR\",GEOGCS[\"NAD83\",DATUM[\"North_American_Datum_1983\",SPHEROID[\"GRS 1980\",6378137,298.257221999999,AUTHORITY[\"EPSG\",\"7019\"]],AUTHORITY[\"EPSG\",\"6269\"]],PRIMEM[\"Greenwich\",0],UNIT[\"degree\",0.0174532925199433,AUTHORITY[\"EPSG\",\"9122\"]],AUTHORITY[\"EPSG\",\"4269\"]],PROJECTION[\"Lambert_Conformal_Conic_2SP\"],PARAMETER[\"latitude_of_origin\",51],PARAMETER[\"central_meridian\",-154],PARAMETER[\"standard_parallel_1\",65],PARAMETER[\"standard_parallel_2\",37],PARAMETER[\"false_easting\",0],PARAMETER[\"false_northing\",0],UNIT[\"metre\",1,AUTHORITY[\"EPSG\",\"9001\"]],AXIS[\"Easting\",EAST],AXIS[\"Northing\",NORTH]]"
    }
  },
  "features": [
    {
      "type": "Feature",
      "properties": {
        "FID": 0
      },
      "geometry": {
        "type": "Polygon",
        "coordinates": [
          [
            [
              539016.2100565999,
              1593811.0996764
            ],
            [
              2297843.8160342,
              160621.33750370005
            ],
            [
              2008344.9153542002,
              -194731.42624029994
            ],
            [
              1416067.6235941998,
              287788.2370997
            ],
            [
              1158645.5284505999,
              -28007.777188400156
            ],
            [
              894527.0665152001,
              187314.9718236
            ],
            [
              1167417.808493,
              520815.5387516
            ],
            [
              762139.9253548001,
              851138.8075263
            ],
            [
              490701.64031519997,
              516305.6513736
            ],
            [
              -7888.152566400007,
              922499.477058
            ],
            [
              539016.2100565999,
              1593811.0996764
            ]
          ]
        ]
      }
    }
  ]
}
