{
  "type": "FeatureCollection",
  "name": "step_5w",
  "crs": {
    "type": "name",
    "properties": {
      "name": "PROJCS[\"AK_IFR\",GEOGCS[\"NAD83\",DATUM[\"North_American_Datum_1983\",SPHEROID[\"GRS 1980\",6378137,298.257221999999,AUTHORITY[\"EPSG\",\"7019\"]],AUTHORITY[\"EPSG\",\"6269\"]],PRIMEM[\"Greenwich\",0],UNIT[\"degree\",0.0174532925199433,AUTHORITY[\"EPSG\",\"9122\"]],AUTHORITY[\"EPSG\",\"4269\"]],PROJECTION[\"Lambert_Conformal_Conic_2SP\"],PARAMETER[\"latitude_of_origin\",51],PARAMETER[\"central_meridian\",-154],PARAMETER[\"standard_parallel_1\",65],PARAMETER[\"standard_parallel_2\",37],PARAMETER[\"false_easting\",0],PARAMETER[\"false_northing\",0],UNIT[\"metre\",1,AUTHORITY[\"EPSG\",\"9001\"]],AXIS[\"Easting\",EAST],AXIS[\"Northing\",NORTH]]"
    }
  },
  "features": [
    {
      "type": "Feature",
      "properties": {
        "FID": 0
      },
      "geometry": {
        "type": "Polygon",
        "coordinates": [
          [
            [
              -1219648.9416190998,
              614567.2268356
            ],
            [
              -1191763.6844152699,
              247157.70338259995
            ],
            [
              -2056131.3855382698,
              181599.85412419995
            ],
            [
              -2095342.67775216,
              699768.0019088
            ],
            [
              -1683425.0301680397,
              729616.7214376
            ],
            [
              -1672088.7050591,
              580251.9952836
            ],
            [
              -1219648.9416190998,
              614567.2268356
            ]
          ]
        ]
      }
    }
  ]
}
