{
  "type": "FeatureCollection",
  "name": "step_5w",
  "crs": {
    "type": "name",
    "properties": {
      "name": "PROJCS[\"AK_IFR\",GEOGCS[\"NAD83\",DATUM[\"North_American_Datum_1983\",SPHEROID[\"GRS 1980\",6378137,298.257221999999,AUTHORITY[\"EPSG\",\"7019\"]],AUTHORITY[\"EPSG\",\"6269\"]],PRIMEM[\"Greenwich\",0],UNIT[\"degree\",0.0174532925199433,AUTHORITY[\"EPSG\",\"9122\"]],AUTHORITY[\"EPSG\",\"4269\"]],PROJECTION[\"Lambert_Conformal_Conic_2SP\"],PARAMETER[\"latitude_of_origin\",51],PARAMETER[\"central_meridian\",-154],PARAMETER[\"standard_parallel_1\",65],PARAMETER[\"standard_parallel_2\",37],PARAMETER[\"false_easting\",0],PARAMETER[\"false_northing\",0],UNIT[\"metre\",1,AUTHORITY[\"EPSG\",\"9001\"]],AXIS[\"Easting\",EAST],AXIS[\"Northing\",NORTH]]"
    }
  },
  "features": [
    {
      "type": "Feature",
      "properties": {
        "FID": 0
      },
      "geometry": {
        "type": "Polygon",
        "coordinates": [
          [
            [
              -1000705.6092086938,
              1513639.4273036895
            ],
            [
              -720440.5360680254,
              1910109.7897973391
            ],
            [
              -586401.5962836628,
              1909881.3790266188
            ],
            [
              -587116.4892338569,
              2320698.9698074986
            ],
            [
              767973.2445471432,
              2320730.319730864
            ],
            [
              767843.5434555978,
              1454760.6012159856
            ],
            [
              -1000706.558401402,
              1454719.6859106896
            ],
            [
              -1000705.6092086938,
              1513639.4273036895
            ]
          ]
        ]
      }
    }
  ]
}
