{
  "type": "FeatureCollection",
  "name": "Juneau SEC.tif",
  "crs": {
    "type": "name",
    "properties": {
      "name": "PROJCS[\"AK_IFR\",GEOGCS[\"NAD83\",DATUM[\"North_American_Datum_1983\",SPHEROID[\"GRS 1980\",6378137,298.257221999999,AUTHORITY[\"EPSG\",\"7019\"]],AUTHORITY[\"EPSG\",\"6269\"]],PRIMEM[\"Greenwich\",0],UNIT[\"degree\",0.0174532925199433,AUTHORITY[\"EPSG\",\"9122\"]],AUTHORITY[\"EPSG\",\"4269\"]],PROJECTION[\"Lambert_Conformal_Conic_2SP\"],PARAMETER[\"latitude_of_origin\",51],PARAMETER[\"central_meridian\",-154],PARAMETER[\"standard_parallel_1\",65],PARAMETER[\"standard_parallel_2\",37],PARAMETER[\"false_easting\",0],PARAMETER[\"false_northing\",0],UNIT[\"metre\",1,AUTHORITY[\"EPSG\",\"9001\"]],AXIS[\"Easting\",EAST],AXIS[\"Northing\",NORTH]]"
    }
  },
  "features": [
    {
      "type": "Feature",
      "properties": {
        "location": "Juneau SEC.tif"
      },
      "geometry": {
        "type": "Polygon",
        "coordinates": [
          [
            [
              981963.3258676,
              1099784.1792128
            ],
            [
              1210214.3510488002,
              952897.8772687999
            ],
            [
              1085763.0234104001,
              759443.7262150999
            ],
            [
              857457.4970293,
              906365.1012971
            ],
            [
              981963.3258676,
              1099784.1792128
            ]
          ]
        ]
      }
    }
  ],
  "source_sheet": {
    "schema_version": 1,
    "source": "ENR_AKL01.tif",
    "source_width": 24000,
    "source_height": 8000,
    "detail_width": 4320,
    "detail_height": 3786,
    "pixel_transform": [
      7840,
      1,
      0,
      4052,
      0,
      1
    ],
    "note": "FAA supplies this detail GeoTIFF with its own georeference. No manual calibration; review the rough cutline and its parent-sheet placement."
  }
}
