{
  "type": "FeatureCollection",
  "name": "Anchorage SEC.tif",
  "crs": {
    "type": "name",
    "properties": {
      "name": "PROJCS[\"AK_IFR\",GEOGCS[\"NAD83\",DATUM[\"North_American_Datum_1983\",SPHEROID[\"GRS 1980\",6378137,298.257221999999,AUTHORITY[\"EPSG\",\"7019\"]],AUTHORITY[\"EPSG\",\"6269\"]],PRIMEM[\"Greenwich\",0],UNIT[\"degree\",0.0174532925199433,AUTHORITY[\"EPSG\",\"9122\"]],AUTHORITY[\"EPSG\",\"4269\"]],PROJECTION[\"Lambert_Conformal_Conic_2SP\"],PARAMETER[\"latitude_of_origin\",51],PARAMETER[\"central_meridian\",-154],PARAMETER[\"standard_parallel_1\",65],PARAMETER[\"standard_parallel_2\",37],PARAMETER[\"false_easting\",0],PARAMETER[\"false_northing\",0],UNIT[\"metre\",1,AUTHORITY[\"EPSG\",\"9001\"]],AXIS[\"Easting\",EAST],AXIS[\"Northing\",NORTH]]"
    }
  },
  "features": [
    {
      "type": "Feature",
      "properties": {
        "location": "Anchorage SEC.tif"
      },
      "geometry": {
        "type": "Polygon",
        "coordinates": [
          [
            [
              137264.27518660002,
              1276242.2365127997
            ],
            [
              521150.8170106,
              1187875.9473776
            ],
            [
              482531.7930229,
              1020067.8794896
            ],
            [
              429109.46103265,
              1032327.3705261999
            ],
            [
              264658.33282405004,
              884999.4682117999
            ],
            [
              258323.1792835,
              857452.3527783998
            ],
            [
              51864.055389999994,
              904980.833184
            ],
            [
              137264.27518660002,
              1276242.2365127997
            ]
          ]
        ]
      }
    }
  ],
  "source_sheet": {
    "schema_version": 1,
    "source": "ENR_AKL04.tif",
    "source_width": 24000,
    "source_height": 8000,
    "detail_width": 8000,
    "detail_height": 8000,
    "pixel_transform": [
      2000,
      1,
      0,
      0,
      0,
      1
    ],
    "note": "FAA supplies this detail GeoTIFF with its own georeference. No manual calibration; review the rough cutline and its parent-sheet placement."
  }
}
