{
  "type": "FeatureCollection",
  "name": "step_5w",
  "crs": {
    "type": "name",
    "properties": {
      "name": "PROJCS[\"AK_IFR\",GEOGCS[\"NAD83\",DATUM[\"North_American_Datum_1983\",SPHEROID[\"GRS 1980\",6378137,298.257221999999,AUTHORITY[\"EPSG\",\"7019\"]],AUTHORITY[\"EPSG\",\"6269\"]],PRIMEM[\"Greenwich\",0],UNIT[\"degree\",0.0174532925199433,AUTHORITY[\"EPSG\",\"9122\"]],AUTHORITY[\"EPSG\",\"4269\"]],PROJECTION[\"Lambert_Conformal_Conic_2SP\"],PARAMETER[\"latitude_of_origin\",51],PARAMETER[\"central_meridian\",-154],PARAMETER[\"standard_parallel_1\",65],PARAMETER[\"standard_parallel_2\",37],PARAMETER[\"false_easting\",0],PARAMETER[\"false_northing\",0],UNIT[\"metre\",1,AUTHORITY[\"EPSG\",\"9001\"]],AXIS[\"Easting\",EAST],AXIS[\"Northing\",NORTH]]"
    }
  },
  "features": [
    {
      "type": "Feature",
      "properties": {
        "FID": 0
      },
      "geometry": {
        "type": "Polygon",
        "coordinates": [
          [
            [
              -819848.8131400525,
              1552476.0847161752
            ],
            [
              838615.5534679478,
              1552432.5228051785
            ],
            [
              838754.6777294123,
              685763.919252844
            ],
            [
              -981875.2791645875,
              685811.740672307
            ],
            [
              -981886.732233976,
              1110465.4660033071
            ],
            [
              -818795.1147657747,
              1109419.5131811656
            ],
            [
              -819848.8131400525,
              1552476.0847161752
            ]
          ]
        ]
      }
    }
  ]
}
