{
  "type": "FeatureCollection",
  "name": "Chicago TAC",
  "crs": {
    "type": "name",
    "properties": {
      "name": "urn:ogc:def:crs:OGC:1.3:CRS84"
    }
  },
  "features": [
    {
      "type": "Feature",
      "properties": {
        "id": null
      },
      "geometry": {
        "type": "Polygon",
        "coordinates": [
          [
            [
              -88.7773486696227,
              42.488634790517054
            ],
            [
              -88.24995854746086,
              42.49076241022647
            ],
            [
              -87.2509190885826,
              42.48882821348116
            ],
            [
              -87.25440533450475,
              42.16367425050899
            ],
            [
              -87.18988727409294,
              42.15912396186784
            ],
            [
              -87.15648508407875,
              42.14742171708841
            ],
            [
              -87.15645376463193,
              42.14687602391278
            ],
            [
              -87.17018734205456,
              42.14543630019268
            ],
            [
              -87.25471852897282,
              42.15125885222044
            ],
            [
              -87.2549064456536,
              42.12075852729129
            ],
            [
              -87.24973873693132,
              42.10584268592967
            ],
            [
              -87.24558108036837,
              42.09243983062149
            ],
            [
              -87.24163483007133,
              42.078110109122086
            ],
            [
              -87.23806441313593,
              42.06178911305233
            ],
            [
              -87.23524566292376,
              42.04574301909843
            ],
            [
              -87.23317857943483,
              42.03053037060452
            ],
            [
              -87.23205107934997,
              42.01461599818753
            ],
            [
              -87.23092357926511,
              41.99716145025362
            ],
            [
              -87.23136988138205,
              41.99021320796283
            ],
            [
              -87.22058816182049,
              41.990178290256985
            ],
            [
              -87.17708545021273,
              41.989898947920956
            ],
            [
              -87.16576347019384,
              41.98281022593921
            ],
            [
              -87.16519972015143,
              41.97781621888436
            ],
            [
              -87.23176920432876,
              41.97839247045629
            ],
            [
              -87.23198061059466,
              41.97215819925601
            ],
            [
              -87.23360139196667,
              41.946428828660196
            ],
            [
              -87.23536311084926,
              41.930912824609734
            ],
            [
              -87.23691342346595,
              41.91995499388819
            ],
            [
              -87.20139717079265,
              41.94186877325972
            ],
            [
              -87.1080965387699,
              41.95214154123835
            ],
            [
              -86.9851990295194,
              41.95088374021859
            ],
            [
              -86.89697214787859,
              41.938723717445704
            ],
            [
              -86.89725402289979,
              41.89048010532631
            ],
            [
              -86.97166902850104,
              41.852068922508444
            ],
            [
              -87.13290154063696,
              41.853328671525375
            ],
            [
              -87.1619346678223,
              41.828759090624615
            ],
            [
              -87.17349154369217,
              41.827078774711325
            ],
            [
              -87.25812451881247,
              41.82902163600211
            ],
            [
              -87.26118990966823,
              41.5207645473026
            ],
            [
              -87.25766647190302,
              41.5141163133442
            ],
            [
              -87.26129561280118,
              41.51393163043037
            ],
            [
              -87.2618593628436,
              41.49239926852927
            ],
            [
              -87.18656676395308,
              41.491701367592036
            ],
            [
              -87.18628547371014,
              41.47255080567119
            ],
            [
              -87.26193864019329,
              41.47215337608991
            ],
            [
              -87.26295804196633,
              41.456574851891126
            ],
            [
              -88.76475864754468,
              41.45654617087645
            ],
            [
              -88.76687708598938,
              41.586994377562796
            ],
            [
              -88.76971785768757,
              41.58705614357148
            ],
            [
              -88.76975088991662,
              41.58797027359153
            ],
            [
              -88.7670257310201,
              41.59228133394885
            ],
            [
              -88.7773486696227,
              42.488634790517054
            ]
          ]
        ]
      }
    }
  ]
}
