{
  "type": "FeatureCollection",
  "name": "Denver TAC.tif",
  "crs": {
    "type": "name",
    "properties": {
      "name": "urn:ogc:def:crs:EPSG::3857"
    }
  },
  "features": [
    {
      "type": "Feature",
      "properties": {
        "location": "Denver TAC.tif"
      },
      "geometry": {
        "type": "Polygon",
        "coordinates": [
          [
            [
              -11753854.123337723,
              4949039.731464694
            ],
            [
              -11546408.11092194,
              4948536.4707096005
            ],
            [
              -11548839.986709874,
              4756513.893795363
            ],
            [
              -11752345.476469982,
              4756998.360209497
            ],
            [
              -11753854.123337723,
              4949039.731464694
            ]
          ]
        ]
      }
    }
  ]
}
