{
  "type": "FeatureCollection",
  "name": "Houston TAC.tif",
  "crs": {
    "type": "name",
    "properties": {
      "name": "urn:ogc:def:crs:EPSG::3857"
    }
  },
  "features": [
    {
      "type": "Feature",
      "properties": {
        "location": "Houston TAC.tif"
      },
      "geometry": {
        "type": "Polygon",
        "coordinates": [
          [
            [
              -10702871.024702467,
              3568948.505601086
            ],
            [
              -10521095.513999987,
              3568772.3998609595
            ],
            [
              -10522878.649735989,
              3387016.341536024
            ],
            [
              -10701433.411888367,
              3387186.2864374015
            ],
            [
              -10702871.024702467,
              3568948.505601086
            ]
          ]
        ]
      }
    }
  ]
}
