{
  "type": "FeatureCollection",
  "name": "Miami TAC.tif",
  "crs": {
    "type": "name",
    "properties": {
      "name": "urn:ogc:def:crs:EPSG::3857"
    }
  },
  "features": [
    {
      "type": "Feature",
      "properties": {
        "location": "Miami TAC.tif"
      },
      "geometry": {
        "type": "Polygon",
        "coordinates": [
          [
            [
              -9037190.817967592,
              3093737.4896033197
            ],
            [
              -8829889.948339175,
              3094022.976240351
            ],
            [
              -8831626.303230194,
              2890173.6075787703
            ],
            [
              -9034836.66787642,
              2889899.949227026
            ],
            [
              -9037190.817967592,
              3093737.4896033197
            ]
          ]
        ]
      }
    }
  ]
}
