{
  "type": "FeatureCollection",
  "name": "Orlando TAC.tif",
  "crs": {
    "type": "name",
    "properties": {
      "name": "urn:ogc:def:crs:EPSG::3857"
    }
  },
  "features": [
    {
      "type": "Feature",
      "properties": {
        "location": "Orlando TAC.tif"
      },
      "geometry": {
        "type": "Polygon",
        "coordinates": [
          [
            [
              -9131508.722075481,
              3399132.232722736
            ],
            [
              -9129527.456512123,
              3227453.674013067
            ],
            [
              -8922808.896002224,
              3227696.9982918794
            ],
            [
              -8921270.068447148,
              3399408.427960123
            ],
            [
              -9131508.722075481,
              3399132.232722736
            ]
          ]
        ]
      }
    }
  ]
}
