{
  "type": "FeatureCollection",
  "name": "Philadelphia TAC.tif",
  "crs": {
    "type": "name",
    "properties": {
      "name": "urn:ogc:def:crs:EPSG::3857"
    }
  },
  "features": [
    {
      "type": "Feature",
      "properties": {
        "location": "Philadelphia TAC.tif"
      },
      "geometry": {
        "type": "Polygon",
        "coordinates": [
          [
            [
              -8458897.111577354,
              4939169.292721062
            ],
            [
              -8293796.365573156,
              4938963.189677246
            ],
            [
              -8295476.486668003,
              4775755.433195841
            ],
            [
              -8458055.008610556,
              4775924.173955146
            ],
            [
              -8458897.111577354,
              4939169.292721062
            ]
          ]
        ]
      }
    }
  ]
}
