{
  "type": "FeatureCollection",
  "name": "Pittsburgh TAC.tif",
  "crs": {
    "type": "name",
    "properties": {
      "name": "urn:ogc:def:crs:EPSG::3857"
    }
  },
  "features": [
    {
      "type": "Feature",
      "properties": {
        "location": "Pittsburgh TAC.tif"
      },
      "geometry": {
        "type": "Polygon",
        "coordinates": [
          [
            [
              -9013205.605474878,
              5012546.83436938
            ],
            [
              -8847096.296163682,
              5012401.708669497
            ],
            [
              -8848453.557810886,
              4861233.473683704
            ],
            [
              -9012108.495444458,
              4861374.359342441
            ],
            [
              -9013205.605474878,
              5012546.83436938
            ]
          ]
        ]
      }
    }
  ]
}
