{
  "type": "FeatureCollection",
  "name": "Portland TAC",
  "crs": {
    "type": "name",
    "properties": {
      "name": "urn:ogc:def:crs:EPSG::3857"
    }
  },
  "features": [
    {
      "type": "Feature",
      "properties": {
        "id": null
      },
      "geometry": {
        "type": "Polygon",
        "coordinates": [
          [
            [
              -13589169.649665859,
              5653078.034957665
            ],
            [
              -13712806.69268713,
              5653015.813874618
            ],
            [
              -13713638.530565249,
              5782997.840627049
            ],
            [
              -13588415.60637198,
              5782969.94186903
            ],
            [
              -13589169.649665859,
              5653078.034957665
            ]
          ]
        ]
      }
    }
  ]
}
