{
  "type": "FeatureCollection",
  "name": "Puerto Rico -VI TAC.tif",
  "crs": {
    "type": "name",
    "properties": {
      "name": "PROJCS[\"WGS 84 / Pseudo-Mercator\",GEOGCS[\"WGS 84\",DATUM[\"WGS_1984\",SPHEROID[\"WGS 84\",6378137,298.257223563,AUTHORITY[\"EPSG\",\"7030\"]],AUTHORITY[\"EPSG\",\"6326\"]],PRIMEM[\"Greenwich\",0,AUTHORITY[\"EPSG\",\"8901\"]],UNIT[\"degree\",0.0174532925199433,AUTHORITY[\"EPSG\",\"9122\"]],AUTHORITY[\"EPSG\",\"4326\"]],PROJECTION[\"Mercator_1SP\"],PARAMETER[\"central_meridian\",0],PARAMETER[\"scale_factor\",1],PARAMETER[\"false_easting\",0],PARAMETER[\"false_northing\",0],UNIT[\"metre\",1,AUTHORITY[\"EPSG\",\"9001\"]],AXIS[\"Easting\",EAST],AXIS[\"Northing\",NORTH],EXTENSION[\"PROJ4\",\"+proj=merc +a=6378137 +b=6378137 +lat_ts=0 +lon_0=0 +x_0=0 +y_0=0 +k=1 +units=m +nadgrids=@null +wktext +no_defs\"],AUTHORITY[\"EPSG\",\"3857\"]]"
    }
  },
  "features": [
    {
      "type": "Feature",
      "properties": {
        "location": "Puerto Rico -VI TAC.tif"
      },
      "geometry": {
        "type": "Polygon",
        "coordinates": [
          [
            [
              -7515797.218877155,
              2129788.9857559646
            ],
            [
              -7316877.46235623,
              2130301.558129834
            ],
            [
              -7316629.962594116,
              2097036.4082598044
            ],
            [
              -7274567.077303189,
              2096812.7934773818
            ],
            [
              -7274442.6277578045,
              2101224.4198786346
            ],
            [
              -7237632.015018582,
              2101048.1480273833
            ],
            [
              -7237578.956578814,
              2097693.855042418
            ],
            [
              -7216211.272571155,
              2097617.1970953858
            ],
            [
              -7216151.1764215985,
              2100700.8236195724
            ],
            [
              -7151167.820778424,
              2100543.1783642527
            ],
            [
              -7151961.042646824,
              1995145.3181961016
            ],
            [
              -7514999.79564527,
              1995402.195672783
            ],
            [
              -7515797.218877155,
              2129788.9857559646
            ]
          ]
        ]
      }
    }
  ]
}
