{
  "type": "FeatureCollection",
  "name": "San Diego TAC.tif",
  "crs": {
    "type": "name",
    "properties": {
      "name": "urn:ogc:def:crs:EPSG::3857"
    }
  },
  "features": [
    {
      "type": "Feature",
      "properties": {
        "location": "San Diego TAC.tif"
      },
      "geometry": {
        "type": "Polygon",
        "coordinates": [
          [
            [
              -13133582.777640095,
              3976734.650465397
            ],
            [
              -12945056.246659694,
              3976718.0522567634
            ],
            [
              -12946342.309863336,
              3829098.5166986855
            ],
            [
              -13132226.02693053,
              3829165.900100993
            ],
            [
              -13133582.777640095,
              3976734.650465397
            ]
          ]
        ]
      }
    }
  ]
}
