{
  "type": "FeatureCollection",
  "name": "Tampa TAC.tif",
  "crs": {
    "type": "name",
    "properties": {
      "name": "urn:ogc:def:crs:EPSG::3857"
    }
  },
  "features": [
    {
      "type": "Feature",
      "properties": {
        "location": "Tampa TAC.tif"
      },
      "geometry": {
        "type": "Polygon",
        "coordinates": [
          [
            [
              -9250319.434062954,
              3324321.8592145457
            ],
            [
              -9109056.267033044,
              3324081.019829661
            ],
            [
              -9110461.938929247,
              3159937.7878797613
            ],
            [
              -9249463.182632325,
              3160171.0058378833
            ],
            [
              -9250319.434062954,
              3324321.8592145457
            ]
          ]
        ]
      }
    }
  ]
}
