{
  "type": "FeatureCollection",
  "name": "Caribbean 1 VFR Chart.tif",
  "crs": {
    "type": "name",
    "properties": {
      "name": "PROJCS[\"WGS 84 / Pseudo-Mercator\",GEOGCS[\"WGS 84\",DATUM[\"WGS_1984\",SPHEROID[\"WGS 84\",6378137,298.257223563,AUTHORITY[\"EPSG\",\"7030\"]],AUTHORITY[\"EPSG\",\"6326\"]],PRIMEM[\"Greenwich\",0,AUTHORITY[\"EPSG\",\"8901\"]],UNIT[\"degree\",0.0174532925199433,AUTHORITY[\"EPSG\",\"9122\"]],AUTHORITY[\"EPSG\",\"4326\"]],PROJECTION[\"Mercator_1SP\"],PARAMETER[\"central_meridian\",0],PARAMETER[\"scale_factor\",1],PARAMETER[\"false_easting\",0],PARAMETER[\"false_northing\",0],UNIT[\"metre\",1,AUTHORITY[\"EPSG\",\"9001\"]],AXIS[\"Easting\",EAST],AXIS[\"Northing\",NORTH],EXTENSION[\"PROJ4\",\"+proj=merc +a=6378137 +b=6378137 +lat_ts=0 +lon_0=0 +x_0=0 +y_0=0 +k=1 +units=m +nadgrids=@null +wktext +no_defs\"],AUTHORITY[\"EPSG\",\"3857\"]]"
    }
  },
  "features": [
    {
      "type": "Feature",
      "properties": {
        "location": "Caribbean 1 VFR Chart.tif"
      },
      "geometry": {
        "type": "Polygon",
        "coordinates": [
          [
            [
              -9516059.766632646,
              3172199.9866446573
            ],
            [
              -9239291.55209783,
              3182681.412788969
            ],
            [
              -9239524.195748214,
              2753373.754402129
            ],
            [
              -8571625.570707502,
              2753274.6192236408
            ],
            [
              -8571550.45180124,
              3185971.4892838616
            ],
            [
              -7984943.757711397,
              3172960.965084832
            ],
            [
              -8037873.5503321905,
              1804521.0470306643
            ],
            [
              -8349222.552614862,
              1798349.8110788604
            ],
            [
              -8461351.151581544,
              1798222.2472575107
            ],
            [
              -8572459.239977421,
              1798286.0291681867
            ],
            [
              -8683822.456016012,
              1798349.8110788604
            ],
            [
              -8795058.108233247,
              1798094.6834361553
            ],
            [
              -8906293.760450477,
              1798094.6834361588
            ],
            [
              -9017784.540310413,
              1798349.8110788604
            ],
            [
              -9128254.80959955,
              1798860.0663642578
            ],
            [
              -9240000.717102185,
              1798349.8110788604
            ],
            [
              -9351236.369319418,
              1798860.0663642578
            ],
            [
              -9472790.254831098,
              1798960.0701009734
            ],
            [
              -9516059.766632646,
              3172199.9866446573
            ]
          ]
        ]
      }
    }
  ]
}
