{
  "type": "FeatureCollection",
  "name": "Cold Bay SEC.tif",
  "crs": {
    "type": "name",
    "properties": {
      "name": "PROJCS[\"WGS 84 / Pseudo-Mercator\",GEOGCS[\"WGS 84\",DATUM[\"WGS_1984\",SPHEROID[\"WGS 84\",6378137,298.257223563,AUTHORITY[\"EPSG\",\"7030\"]],AUTHORITY[\"EPSG\",\"6326\"]],PRIMEM[\"Greenwich\",0,AUTHORITY[\"EPSG\",\"8901\"]],UNIT[\"degree\",0.0174532925199433,AUTHORITY[\"EPSG\",\"9122\"]],AUTHORITY[\"EPSG\",\"4326\"]],PROJECTION[\"Mercator_1SP\"],PARAMETER[\"central_meridian\",0],PARAMETER[\"scale_factor\",1],PARAMETER[\"false_easting\",0],PARAMETER[\"false_northing\",0],UNIT[\"metre\",1,AUTHORITY[\"EPSG\",\"9001\"]],AXIS[\"Easting\",EAST],AXIS[\"Northing\",NORTH],EXTENSION[\"PROJ4\",\"+proj=merc +a=6378137 +b=6378137 +lat_ts=0 +lon_0=0 +x_0=0 +y_0=0 +k=1 +units=m +nadgrids=@null +wktext +no_defs\"],AUTHORITY[\"EPSG\",\"3857\"]]"
    }
  },
  "features": [
    {
      "type": "Feature",
      "properties": {
        "location": "Cold Bay SEC.tif"
      },
      "geometry": {
        "type": "Polygon",
        "coordinates": [
          [
            [
              -18256396.490096867,
              7558415.656081787
            ],
            [
              -17155271.503953476,
              7558357.941414353
            ],
            [
              -17184999.43648997,
              7139136.433113544
            ],
            [
              -17435327.743144758,
              7152834.825429017
            ],
            [
              -17687106.834406883,
              7158715.145567095
            ],
            [
              -17939061.79698937,
              7156772.369617369
            ],
            [
              -18065046.04348879,
              7152994.392927442
            ],
            [
              -18190732.582117286,
              7147137.290209861
            ],
            [
              -18256331.78208265,
              7143257.17609002
            ],
            [
              -18256396.490096867,
              7558415.656081787
            ]
          ]
        ]
      }
    }
  ]
}
