{
  "type": "FeatureCollection",
  "name": "Seattle SEC.tif",
  "crs": {
    "type": "name",
    "properties": {
      "name": "urn:ogc:def:crs:EPSG::3857"
    }
  },
  "features": [
    {
      "type": "Feature",
      "properties": {
        "location": "Seattle SEC.tif"
      },
      "geometry": {
        "type": "Polygon",
        "coordinates": [
          [
            [
              -13915135.397269432,
              6279669.024331725
            ],
            [
              -13024276.581328636,
              6279671.209244408
            ],
            [
              -12984493.665578168,
              5543084.897720409
            ],
            [
              -13914936.3491592,
              5543147.203861799
            ],
            [
              -13915135.397269432,
              6279669.024331725
            ]
          ]
        ]
      }
    }
  ]
}
