{
  "type": "FeatureCollection",
  "name": "Western Aleutian Islands West SEC.tif",
  "crs": {
    "type": "name",
    "properties": {
      "name": "urn:ogc:def:crs:EPSG::3857"
    }
  },
  "features": [
    {
      "type": "Feature",
      "properties": {
        "location": "Western Aleutian Islands West SEC.tif"
      },
      "geometry": {
        "type": "Polygon",
        "coordinates": [
          [
            [
              18829885.01625149,
              7013038.840571581
            ],
            [
              18979925.67431131,
              7019694.453636824
            ],
            [
              19097772.286406588,
              7023812.179035745
            ],
            [
              19259027.352574978,
              7025921.380312059
            ],
            [
              19370236.452608783,
              7025999.05933547
            ],
            [
              19426756.203118898,
              7025369.456644799
            ],
            [
              19482515.702507757,
              7024247.641770914
            ],
            [
              19536750.98737015,
              7023181.89926849
            ],
            [
              19654801.745450977,
              7019405.984637302
            ],
            [
              19708173.092101213,
              7016749.335664387
            ],
            [
              19886074.099918995,
              7007285.713882621
            ],
            [
              19860460.757200163,
              6621377.34587337
            ],
            [
              19814882.687543128,
              6621504.11907206
            ],
            [
              19536666.491439253,
              6621308.754569653
            ],
            [
              18920801.885341216,
              6615071.939942008
            ],
            [
              18921410.229152914,
              6603495.197577313
            ],
            [
              18872238.56695659,
              6601069.836913774
            ],
            [
              18871528.602681033,
              6614086.487823211
            ],
            [
              18853104.30817336,
              6614117.4489782145
            ],
            [
              18829885.01625149,
              7013038.840571581
            ]
          ]
        ]
      }
    }
  ]
}
