{
  "type": "FeatureCollection",
  "name": "ENR_H04",
  "crs": {
    "type": "name",
    "properties": {
      "name": "PROJCS[\"US_IFR\",GEOGCS[\"NAD83\",DATUM[\"North_American_Datum_1983\",SPHEROID[\"GRS 1980\",6378137,298.257221999999,AUTHORITY[\"EPSG\",\"7019\"]],AUTHORITY[\"EPSG\",\"6269\"]],PRIMEM[\"Greenwich\",0],UNIT[\"degree\",0.0174532925199433,AUTHORITY[\"EPSG\",\"9122\"]],AUTHORITY[\"EPSG\",\"4269\"]],PROJECTION[\"Lambert_Conformal_Conic_2SP\"],PARAMETER[\"latitude_of_origin\",39],PARAMETER[\"central_meridian\",-95],PARAMETER[\"standard_parallel_1\",45],PARAMETER[\"standard_parallel_2\",33],PARAMETER[\"false_easting\",0],PARAMETER[\"false_northing\",0],UNIT[\"metre\",1,AUTHORITY[\"EPSG\",\"9001\"]],AXIS[\"Easting\",EAST],AXIS[\"Northing\",NORTH]]"
    }
  },
  "features": [
    {
      "type": "Feature",
      "properties": {
        "FID": 0
      },
      "geometry": {
        "type": "Polygon",
        "coordinates": [
          [
            [
              -2843123.995370126,
              144899.31750304054
            ],
            [
              -854129.313346865,
              -137612.01791733154
            ],
            [
              -953574.7134497867,
              -837575.6055490132
            ],
            [
              -2744656.4055748913,
              -583360.0908814258
            ],
            [
              -2683462.8507041913,
              -153902.0977574257
            ],
            [
              -2881973.294318891,
              -125894.17168302569
            ],
            [
              -2843123.995370126,
              144899.31750304054
            ]
          ]
        ]
      }
    }
  ]
}
