{
  "type": "FeatureCollection",
  "name": "ENR_P01",
  "crs": {
    "type": "name",
    "properties": {
      "name": "PROJCS[\"P1_IFR\",GEOGCS[\"NAD83\",DATUM[\"North_American_Datum_1983\",SPHEROID[\"GRS 1980\",6378137,298.257221999999,AUTHORITY[\"EPSG\",\"7019\"]],AUTHORITY[\"EPSG\",\"6269\"]],PRIMEM[\"Greenwich\",0],UNIT[\"degree\",0.0174532925199433,AUTHORITY[\"EPSG\",\"9122\"]],AUTHORITY[\"EPSG\",\"4269\"]],PROJECTION[\"Lambert_Conformal_Conic_2SP\"],PARAMETER[\"latitude_of_origin\",23],PARAMETER[\"central_meridian\",-134],PARAMETER[\"standard_parallel_1\",46],PARAMETER[\"standard_parallel_2\",0],PARAMETER[\"false_easting\",0],PARAMETER[\"false_northing\",0],UNIT[\"metre\",1,AUTHORITY[\"EPSG\",\"9001\"]],AXIS[\"Easting\",EAST],AXIS[\"Northing\",NORTH]]"
    }
  },
  "features": [
    {
      "type": "Feature",
      "properties": {
        "FID": 0
      },
      "geometry": {
        "type": "Polygon",
        "coordinates": [
          [
            [
              -9433475.186013328,
              2781601.8566378797
            ],
            [
              2122380.588311653,
              2774193.1828818996
            ],
            [
              2119937.2695799014,
              -2765715.918944502
            ],
            [
              -7243756.698153168,
              -2763643.3183367574
            ],
            [
              -7241362.863220709,
              -565904.6240553558
            ],
            [
              -9433941.445794465,
              -565754.5244084257
            ],
            [
              -9433475.186013328,
              2781601.8566378797
            ]
          ]
        ]
      }
    }
  ]
}
